{"type": "FeatureCollection", "features": [ {"type": "Feature", "properties": {"norad_id": 42987, "name": "SKYSAT-C11", "group": "resource", "lat": -73.06435134554216, "lon": -66.7892416749339, "alt_km": 430.493385435605, "timestamp": "2025-12-26T16:33:55.241409+00:00", "meta": {"OBJECT_NAME": "SKYSAT-C11", "OBJECT_ID": "2017-068A", "EPOCH": "2025-12-26T07:42:41.705856", "MEAN_MOTION": 15.48035151, "ECCENTRICITY": 0.00011385, "INCLINATION": 97.4151, "RA_OF_ASC_NODE": 138.1546, "ARG_OF_PERICENTER": 94.0685, "MEAN_ANOMALY": 266.0696, "EPHEMERIS_TYPE": 0, "CLASSIFICATION_TYPE": "U", "NORAD_CAT_ID": 42987, "ELEMENT_SET_NO": 999, "REV_AT_EPOCH": 45641, "BSTAR": 0.00042677634, "MEAN_MOTION_DOT": 0.00022269, "MEAN_MOTION_DDOT": 0}, "tle": {"line1": "1 42987U 17068A   25360.32131604  .00022269  00000+0  42678-3 0  9998", "line2": "2 42987  97.4151 138.1546 0001138  94.0685 266.0696 15.48035151456410"}}, "geometry": {"type": "Point", "coordinates": [-66.7892416749339, -73.06435134554216]}}, {"type": "Feature", "properties": {"norad_id": 42988, "name": "SKYSAT-C10", "group": "resource", "lat": -81.61581179312104, "lon": -166.15372037515195, "alt_km": 479.53115729967703, "timestamp": "2025-12-26T16:33:55.241418+00:00", "meta": {"OBJECT_NAME": "SKYSAT-C10", "OBJECT_ID": "2017-068B", "EPOCH": "2025-12-24T19:29:00.783168", "MEAN_MOTION": 15.32071049, "ECCENTRICITY": 0.00043105, "INCLINATION": 97.4272, "RA_OF_ASC_NODE": 129.6977, "ARG_OF_PERICENTER": 75.127, "MEAN_ANOMALY": 285.0448, "EPHEMERIS_TYPE": 0, "CLASSIFICATION_TYPE": "U", "NORAD_CAT_ID": 42988, "ELEMENT_SET_NO": 999, "REV_AT_EPOCH": 45564, "BSTAR": 0.00040464637, "MEAN_MOTION_DOT": 0.00012461, "MEAN_MOTION_DDOT": 0}, "tle": {"line1": "1 42988U 17068B   25358.81181462  .00012461  00000+0  40465-3 0  9992", "line2": "2 42988  97.4272 129.6977 0004310  75.1270 285.0448 15.32071049455642"}}, "geometry": {"type": "Point", "coordinates": [-166.15372037515195, -81.61581179312104]}}, {"type": "Feature", "properties": {"norad_id": 42989, "name": "SKYSAT-C9", "group": "resource", "lat": -34.611218052861005, "lon": 136.21704230332094, "alt_km": 461.57587316890385, "timestamp": "2025-12-26T16:33:55.241427+00:00", "meta": {"OBJECT_NAME": "SKYSAT-C9", "OBJECT_ID": "2017-068C", "EPOCH": "2025-12-26T07:20:18.110688", "MEAN_MOTION": 15.36393456, "ECCENTRICITY": 0.00101874, "INCLINATION": 97.4193, "RA_OF_ASC_NODE": 130.6696, "ARG_OF_PERICENTER": 44.147, "MEAN_ANOMALY": 316.0585, "EPHEMERIS_TYPE": 0, "CLASSIFICATION_TYPE": "U", "NORAD_CAT_ID": 42989, "ELEMENT_SET_NO": 999, "REV_AT_EPOCH": 45616, "BSTAR": 0.00038879754, "MEAN_MOTION_DOT": 0.0001375, "MEAN_MOTION_DDOT": 0}, "tle": {"line1": "1 42989U 17068C   25360.30576517  .00013750  00000+0  38880-3 0  9999", "line2": "2 42989  97.4193 130.6696 0010187  44.1470 316.0585 15.36393456456160"}}, "geometry": {"type": "Point", "coordinates": [136.21704230332094, -34.611218052861005]}}, {"type": "Feature", "properties": {"norad_id": 42990, "name": "SKYSAT-C8", "group": "resource", "lat": 41.44684059701398, "lon": -42.62960057760633, "alt_km": 463.29377360152284, "timestamp": "2025-12-26T16:33:55.241436+00:00", "meta": {"OBJECT_NAME": "SKYSAT-C8", "OBJECT_ID": "2017-068D", "EPOCH": "2025-12-25T21:10:08.555808", "MEAN_MOTION": 15.33208945, "ECCENTRICITY": 9.45e-05, "INCLINATION": 97.4287, "RA_OF_ASC_NODE": 129.942, "ARG_OF_PERICENTER": 263.9401, "MEAN_ANOMALY": 96.1733, "EPHEMERIS_TYPE": 0, "CLASSIFICATION_TYPE": "U", "NORAD_CAT_ID": 42990, "ELEMENT_SET_NO": 999, "REV_AT_EPOCH": 45572, "BSTAR": 0.00035524, "MEAN_MOTION_DOT": 0.00011324, "MEAN_MOTION_DDOT": 0}, "tle": {"line1": "1 42990U 17068D   25359.88204347  .00011324  00000+0  35524-3 0  9998", "line2": "2 42990  97.4287 129.9420 0000945 263.9401  96.1733 15.33208945455725"}}, "geometry": {"type": "Point", "coordinates": [-42.62960057760633, 41.44684059701398]}}, {"type": "Feature", "properties": {"norad_id": 42991, "name": "SKYSAT-C7", "group": "resource", "lat": -36.43079661275852, "lon": 137.31100808417705, "alt_km": 471.34606892654847, "timestamp": "2025-12-26T16:33:55.241446+00:00", "meta": {"OBJECT_NAME": "SKYSAT-C7", "OBJECT_ID": "2017-068E", "EPOCH": "2025-12-26T07:19:25.068000", "MEAN_MOTION": 15.32614143, "ECCENTRICITY": 0.00067889, "INCLINATION": 97.4296, "RA_OF_ASC_NODE": 131.3973, "ARG_OF_PERICENTER": 13.531, "MEAN_ANOMALY": 346.6113, "EPHEMERIS_TYPE": 0, "CLASSIFICATION_TYPE": "U", "NORAD_CAT_ID": 42991, "ELEMENT_SET_NO": 999, "REV_AT_EPOCH": 45585, "BSTAR": 0.00036826425, "MEAN_MOTION_DOT": 0.00011532, "MEAN_MOTION_DDOT": 0}, "tle": {"line1": "1 42991U 17068E   25360.30515125  .00011532  00000+0  36826-3 0  9994", "line2": "2 42991  97.4296 131.3973 0006788  13.5310 346.6113 15.32614143455854"}}, "geometry": {"type": "Point", "coordinates": [137.31100808417705, -36.43079661275852]}}, {"type": "Feature", "properties": {"norad_id": 42992, "name": "SKYSAT-C6", "group": "resource", "lat": 37.624887005126695, "lon": 126.43567526727183, "alt_km": 464.6229361716696, "timestamp": "2025-12-26T16:33:55.241455+00:00", "meta": {"OBJECT_NAME": "SKYSAT-C6", "OBJECT_ID": "2017-068F", "EPOCH": "2025-12-25T20:01:06.090528", "MEAN_MOTION": 15.31757076, "ECCENTRICITY": 0.00047376, "INCLINATION": 97.4326, "RA_OF_ASC_NODE": 131.3522, "ARG_OF_PERICENTER": 46.8398, "MEAN_ANOMALY": 313.3239, "EPHEMERIS_TYPE": 0, "CLASSIFICATION_TYPE": "U", "NORAD_CAT_ID": 42992, "ELEMENT_SET_NO": 999, "REV_AT_EPOCH": 45576, "BSTAR": 0.00037471515, "MEAN_MOTION_DOT": 0.0001142, "MEAN_MOTION_DDOT": 0}, "tle": {"line1": "1 42992U 17068F   25359.83409827  .00011420  00000+0  37472-3 0  9996", "line2": "2 42992  97.4326 131.3522 0004737  46.8398 313.3239 15.31757076455768"}}, "geometry": {"type": "Point", "coordinates": [126.43567526727183, 37.624887005126695]}}, {"type": "Feature", "properties": {"norad_id": 43111, "name": "CARTOSAT-2F", "group": "resource", "lat": -62.977623110094065, "lon": -136.72334717938338, "alt_km": 516.0369256447293, "timestamp": "2025-12-26T16:33:55.241463+00:00", "meta": {"OBJECT_NAME": "CARTOSAT-2F", "OBJECT_ID": "2018-004A", "EPOCH": "2025-12-26T06:00:38.745216", "MEAN_MOTION": 15.19254596, "ECCENTRICITY": 0.00015539, "INCLINATION": 97.4293, "RA_OF_ASC_NODE": 57.6681, "ARG_OF_PERICENTER": 111.8418, "MEAN_ANOMALY": 248.2982, "EPHEMERIS_TYPE": 0, "CLASSIFICATION_TYPE": "U", "NORAD_CAT_ID": 43111, "ELEMENT_SET_NO": 999, "REV_AT_EPOCH": 44107, "BSTAR": 0.00027198855, "MEAN_MOTION_DOT": 5.666e-05, "MEAN_MOTION_DDOT": 0}, "tle": {"line1": "1 43111U 18004A   25360.25044844  .00005666  00000+0  27199-3 0  9993", "line2": "2 43111  97.4293  57.6681 0001553 111.8418 248.2982 15.19254596441075"}}, "geometry": {"type": "Point", "coordinates": [-136.72334717938338, -62.977623110094065]}}, {"type": "Feature", "properties": {"norad_id": 43259, "name": "GAOFEN-1 02", "group": "resource", "lat": 23.179391931661414, "lon": 54.99650029484874, "alt_km": 641.6689556290185, "timestamp": "2025-12-26T16:33:55.241473+00:00", "meta": {"OBJECT_NAME": "GAOFEN-1 02", "OBJECT_ID": "2018-031A", "EPOCH": "2025-12-26T06:42:01.672128", "MEAN_MOTION": 14.76444601, "ECCENTRICITY": 0.00027126, "INCLINATION": 98.0784, "RA_OF_ASC_NODE": 58.072, "ARG_OF_PERICENTER": 167.9443, "MEAN_ANOMALY": 192.1831, "EPHEMERIS_TYPE": 0, "CLASSIFICATION_TYPE": "U", "NORAD_CAT_ID": 43259, "ELEMENT_SET_NO": 999, "REV_AT_EPOCH": 41718, "BSTAR": 0.00022564593, "MEAN_MOTION_DOT": 1.518e-05, "MEAN_MOTION_DDOT": 0}, "tle": {"line1": "1 43259U 18031A   25360.27918602  .00001518  00000+0  22565-3 0  9994", "line2": "2 43259  98.0784  58.0720 0002712 167.9443 192.1831 14.76444601417182"}}, "geometry": {"type": "Point", "coordinates": [54.99650029484874, 23.179391931661414]}}, {"type": "Feature", "properties": {"norad_id": 43260, "name": "GAOFEN-1 03", "group": "resource", "lat": 39.758282168558694, "lon": -114.85534569546377, "alt_km": 637.9955481540001, "timestamp": "2025-12-26T16:33:55.241482+00:00", "meta": {"OBJECT_NAME": "GAOFEN-1 03", "OBJECT_ID": "2018-031B", "EPOCH": "2025-12-26T06:10:31.736928", "MEAN_MOTION": 14.76426035, "ECCENTRICITY": 0.00016445, "INCLINATION": 98.078, "RA_OF_ASC_NODE": 57.9261, "ARG_OF_PERICENTER": 252.6735, "MEAN_ANOMALY": 107.4295, "EPHEMERIS_TYPE": 0, "CLASSIFICATION_TYPE": "U", "NORAD_CAT_ID": 43260, "ELEMENT_SET_NO": 999, "REV_AT_EPOCH": 41717, "BSTAR": 0.00016521888, "MEAN_MOTION_DOT": 1.097e-05, "MEAN_MOTION_DDOT": 0}, "tle": {"line1": "1 43260U 18031B   25360.25731177  .00001097  00000+0  16522-3 0  9992", "line2": "2 43260  98.0780  57.9261 0001644 252.6735 107.4295 14.76426035417170"}}, "geometry": {"type": "Point", "coordinates": [-114.85534569546377, 39.758282168558694]}}, {"type": "Feature", "properties": {"norad_id": 43262, "name": "GAOFEN-1 04", "group": "resource", "lat": -81.80051952410916, "lon": 158.2280418488046, "alt_km": 648.2713736676524, "timestamp": "2025-12-26T16:33:55.241491+00:00", "meta": {"OBJECT_NAME": "GAOFEN-1 04", "OBJECT_ID": "2018-031D", "EPOCH": "2025-12-26T07:13:10.712352", "MEAN_MOTION": 14.76433333, "ECCENTRICITY": 4.949e-05, "INCLINATION": 98.0785, "RA_OF_ASC_NODE": 58.14, "ARG_OF_PERICENTER": 66.2308, "MEAN_ANOMALY": 293.8954, "EPHEMERIS_TYPE": 0, "CLASSIFICATION_TYPE": "U", "NORAD_CAT_ID": 43262, "ELEMENT_SET_NO": 999, "REV_AT_EPOCH": 41717, "BSTAR": 0.00013762747, "MEAN_MOTION_DOT": 9.05e-06, "MEAN_MOTION_DDOT": 0}, "tle": {"line1": "1 43262U 18031D   25360.30081843  .00000905  00000+0  13763-3 0  9999", "line2": "2 43262  98.0785  58.1400 0000494  66.2308 293.8954 14.76433333417173"}}, "geometry": {"type": "Point", "coordinates": [158.2280418488046, -81.80051952410916]}}]}